[{"OBJECT_NAME":"FLOCK 4BE-7","OBJECT_ID":"2024-149P","EPOCH":"2026-03-09T18:10:07.432608","MEAN_MOTION":15.36285753,"ECCENTRICITY":0.00023454,"INCLINATION":97.3799,"RA_OF_ASC_NODE":151.2741,"ARG_OF_PERICENTER":229.8965,"MEAN_ANOMALY":130.2073,"EPHEMERIS_TYPE":0,"CLASSIFICATION_TYPE":"U","NORAD_CAT_ID":60481,"ELEMENT_SET_NO":999,"REV_AT_EPOCH":8696,"BSTAR":0.00050594522,"MEAN_MOTION_DOT":0.00017838,"MEAN_MOTION_DDOT":0},{"OBJECT_NAME":"KUIPER-00160","OBJECT_ID":"2026-030B","EPOCH":"2026-03-09T18:20:16.137888","MEAN_MOTION":15.35623214,"ECCENTRICITY":0.00052725,"INCLINATION":51.8805,"RA_OF_ASC_NODE":218.8175,"ARG_OF_PERICENTER":54.195,"MEAN_ANOMALY":305.9525,"EPHEMERIS_TYPE":0,"CLASSIFICATION_TYPE":"U","NORAD_CAT_ID":67765,"ELEMENT_SET_NO":999,"REV_AT_EPOCH":510,"BSTAR":0.0010485695,"MEAN_MOTION_DOT":0.00036682,"MEAN_MOTION_DDOT":0}]
